start=new Date('2023-02-10T00:00:00.000Z').valueOf();
sats=[{"DECAY_DATE":null,"MEAN_MOTION":"15.08841531","TLE_LINE1":"1 53848U 22114AG  23040.84926036 -.00001004  00000-0 -44990-4 0  9992","APOAPSIS":"540.709","ECCENTRICITY":"0.00014000","RA_OF_ASC_NODE":"298.9668","LAUNCH_DATE":"2022-09-19","OBJECT_TYPE":"PAYLOAD","GP_ID":"224931799","CLASSIFICATION_TYPE":"U","OBJECT_NAME":"STARLINK-4780","SITE":"AFETR","INCLINATION":"53.2189","PERIOD":"95.437","EPOCH":"2023-02-09T20:22:56.095104","ARG_OF_PERICENTER":"83.3832","NORAD_CAT_ID":"53848","EPHEMERIS_TYPE":"0","REV_AT_EPOCH":"2277","MEAN_ANOMALY":"276.7320","ELEMENT_SET_NO":"999","RCS_SIZE":"LARGE","BSTAR":"-0.00004499000000","MEAN_MOTION_DOT":"-0.00001004","TLE_LINE2":"2 53848  53.2189 298.9668 0001400  83.3832 276.7320 15.08841531 22779","TIME_SYSTEM":"UTC","SEMIMAJOR_AXIS":"6917.876","COUNTRY_CODE":"US","MEAN_ELEMENT_THEORY":"SGP4","FILE":"3783033","CENTER_NAME":"EARTH","PERIAPSIS":"538.772","REF_FRAME":"TEME","MEAN_MOTION_DDOT":"0.0000000000000","OBJECT_ID":"2022-114AG"},{"ARG_OF_PERICENTER":"87.2164","EPOCH":"2023-02-09T20:38:51.315360","RCS_SIZE":"LARGE","BSTAR":"0.00016058000000","ELEMENT_SET_NO":"999","REV_AT_EPOCH":"2331","NORAD_CAT_ID":"53849","EPHEMERIS_TYPE":"0","MEAN_ANOMALY":"272.9004","COUNTRY_CODE":"US","SEMIMAJOR_AXIS":"6917.899","FILE":"3783241","MEAN_ELEMENT_THEORY":"SGP4","TIME_SYSTEM":"UTC","TLE_LINE2":"2 53849  53.2184 299.0266 0001535  87.2164 272.9004 15.08833792 23319","MEAN_MOTION_DOT":"0.00002268","OBJECT_ID":"2022-114AH","MEAN_MOTION_DDOT":"0.0000000000000","REF_FRAME":"TEME","PERIAPSIS":"538.702","CENTER_NAME":"EARTH","APOAPSIS":"540.826","TLE_LINE1":"1 53849U 22114AH  23040.86031615  .00002268  00000-0  16058-3 0  9999","MEAN_MOTION":"15.08833792","DECAY_DATE":null,"LAUNCH_DATE":"2022-09-19","ECCENTRICITY":"0.00015350","RA_OF_ASC_NODE":"299.0266","GP_ID":"224961496","OBJECT_TYPE":"PAYLOAD","CLASSIFICATION_TYPE":"U","OBJECT_NAME":"STARLINK-4770","PERIOD":"95.438","INCLINATION":"53.2184","SITE":"AFETR"},{"MEAN_MOTION_DOT":"-0.00003654","TLE_LINE2":"2 53850  53.2195 302.1723 0001087  82.6110 277.5006 15.08846784 23205","TIME_SYSTEM":"UTC","SEMIMAJOR_AXIS":"6917.860","COUNTRY_CODE":"US","FILE":"3782313","MEAN_ELEMENT_THEORY":"SGP4","CENTER_NAME":"EARTH","PERIAPSIS":"538.973","REF_FRAME":"TEME","MEAN_MOTION_DDOT":"0.0000000000000","OBJECT_ID":"2022-114AJ","EPOCH":"2023-02-09T02:37:46.339968","ARG_OF_PERICENTER":"82.6110","EPHEMERIS_TYPE":"0","NORAD_CAT_ID":"53850","REV_AT_EPOCH":"2320","MEAN_ANOMALY":"277.5006","RCS_SIZE":"LARGE","ELEMENT_SET_NO":"999","BSTAR":"-0.00021155000000","OBJECT_TYPE":"PAYLOAD","GP_ID":"224914048","OBJECT_NAME":"STARLINK-4767","CLASSIFICATION_TYPE":"U","SITE":"AFETR","PERIOD":"95.437","INCLINATION":"53.2195","DECAY_DATE":null,"MEAN_MOTION":"15.08846784","TLE_LINE1":"1 53850U 22114AJ  23040.10956412 -.00003654  00000-0 -21155-3 0  9995","APOAPSIS":"540.477","ECCENTRICITY":"0.00010870","RA_OF_ASC_NODE":"302.1723","LAUNCH_DATE":"2022-09-19"},{"EPHEMERIS_TYPE":"0","NORAD_CAT_ID":"53851","REV_AT_EPOCH":"2277","MEAN_ANOMALY":"267.7939","ELEMENT_SET_NO":"999","RCS_SIZE":"LARGE","BSTAR":"0.00008148000000","EPOCH":"2023-02-09T20:28:14.677824","ARG_OF_PERICENTER":"92.3193","CENTER_NAME":"EARTH","PERIAPSIS":"538.897","REF_FRAME":"TEME","MEAN_MOTION_DDOT":"0.0000000000000","OBJECT_ID":"2022-114AK","MEAN_MOTION_DOT":"0.00001009","TLE_LINE2":"2 53851  53.2173 298.9915 0001224  92.3193 267.7939 15.08840629 22778","TIME_SYSTEM":"UTC","SEMIMAJOR_AXIS":"6917.878","COUNTRY_CODE":"US","FILE":"3783008","MEAN_ELEMENT_THEORY":"SGP4","ECCENTRICITY":"0.00012240","RA_OF_ASC_NODE":"298.9915","LAUNCH_DATE":"2022-09-19","DECAY_DATE":null,"MEAN_MOTION":"15.08840629","TLE_LINE1":"1 53851U 22114AK  23040.85294766  .00001009  00000-0  81480-4 0  9993","APOAPSIS":"540.590","CLASSIFICATION_TYPE":"U","OBJECT_NAME":"STARLINK-4755","SITE":"AFETR","INCLINATION":"53.2173","PERIOD":"95.438","OBJECT_TYPE":"PAYLOAD","GP_ID":"224931012"},{"MEAN_MOTION":"15.08860299","DECAY_DATE":null,"APOAPSIS":"540.763","TLE_LINE1":"1 53852U 22114AL  23040.15704153  .00024693  00000-0  15633-2 0  9992","RA_OF_ASC_NODE":"297.4739","ECCENTRICITY":"0.00015600","LAUNCH_DATE":"2022-09-19","GP_ID":"224913547","OBJECT_TYPE":"PAYLOAD","PERIOD":"95.436","INCLINATION":"53.2167","SITE":"AFETR","CLASSIFICATION_TYPE":"U","OBJECT_NAME":"STARLINK-4797","EPOCH":"2023-02-09T03:46:08.388192","ARG_OF_PERICENTER":"84.3017","MEAN_ANOMALY":"275.8153","REV_AT_EPOCH":"2327","EPHEMERIS_TYPE":"0","NORAD_CAT_ID":"53852","RCS_SIZE":"LARGE","BSTAR":"0.00156330000000","ELEMENT_SET_NO":"999","TIME_SYSTEM":"UTC","TLE_LINE2":"2 53852  53.2167 297.4739 0001560  84.3017 275.8153 15.08860299 23278","MEAN_MOTION_DOT":"0.00024693","MEAN_ELEMENT_THEORY":"SGP4","FILE":"3782313","COUNTRY_CODE":"US","SEMIMAJOR_AXIS":"6917.818","PERIAPSIS":"538.604","CENTER_NAME":"EARTH","OBJECT_ID":"2022-114AL","MEAN_MOTION_DDOT":"0.0000000000000","REF_FRAME":"TEME"},{"RA_OF_ASC_NODE":"301.3264","ECCENTRICITY":"0.00013150","LAUNCH_DATE":"2022-09-19","MEAN_MOTION":"15.08854927","DECAY_DATE":null,"APOAPSIS":"540.609","TLE_LINE1":"1 53853U 22114AM  23040.31565007  .00018906  00000-0  12023-2 0  9994","PERIOD":"95.437","INCLINATION":"53.2164","SITE":"AFETR","CLASSIFICATION_TYPE":"U","OBJECT_NAME":"STARLINK-4794","GP_ID":"224913797","OBJECT_TYPE":"PAYLOAD","MEAN_ANOMALY":"282.1991","REV_AT_EPOCH":"2323","NORAD_CAT_ID":"53853","EPHEMERIS_TYPE":"0","RCS_SIZE":"LARGE","ELEMENT_SET_NO":"999","BSTAR":"0.00120230000000","EPOCH":"2023-02-09T07:34:32.166048","ARG_OF_PERICENTER":"77.9148","PERIAPSIS":"538.790","CENTER_NAME":"EARTH","OBJECT_ID":"2022-114AM","MEAN_MOTION_DDOT":"0.0000000000000","REF_FRAME":"TEME","TIME_SYSTEM":"UTC","TLE_LINE2":"2 53853  53.2164 301.3264 0001315  77.9148 282.1991 15.08854927 23233","MEAN_MOTION_DOT":"0.00018906","MEAN_ELEMENT_THEORY":"SGP4","FILE":"3782313","COUNTRY_CODE":"US","SEMIMAJOR_AXIS":"6917.835"},{"APOAPSIS":"540.781","TLE_LINE1":"1 53854U 22114AN  23040.82816418  .00039619  00000-0  24926-2 0  9995","MEAN_MOTION":"15.08852497","DECAY_DATE":null,"LAUNCH_DATE":"2022-09-19","RA_OF_ASC_NODE":"289.5639","ECCENTRICITY":"0.00015520","GP_ID":"224931536","OBJECT_TYPE":"PAYLOAD","CLASSIFICATION_TYPE":"U","OBJECT_NAME":"STARLINK-4800","PERIOD":"95.437","INCLINATION":"53.2156","SITE":"AFETR","ARG_OF_PERICENTER":"94.1966","EPOCH":"2023-02-09T19:52:33.385152","RCS_SIZE":"LARGE","BSTAR":"0.00249260000000","ELEMENT_SET_NO":"999","REV_AT_EPOCH":"2290","EPHEMERIS_TYPE":"0","NORAD_CAT_ID":"53854","MEAN_ANOMALY":"265.9203","COUNTRY_CODE":"US","SEMIMAJOR_AXIS":"6917.842","FILE":"3783001","MEAN_ELEMENT_THEORY":"SGP4","TIME_SYSTEM":"UTC","TLE_LINE2":"2 53854  53.2156 289.5639 0001552  94.1966 265.9203 15.08852497 22908","MEAN_MOTION_DOT":"0.00039619","OBJECT_ID":"2022-114AN","MEAN_MOTION_DDOT":"0.0000000000000","REF_FRAME":"TEME","PERIAPSIS":"538.634","CENTER_NAME":"EARTH"},{"GP_ID":"224932521","OBJECT_TYPE":"PAYLOAD","CLASSIFICATION_TYPE":"U","OBJECT_NAME":"STARLINK-4703","PERIOD":"95.438","INCLINATION":"53.2154","SITE":"AFETR","MEAN_MOTION":"15.08837862","DECAY_DATE":null,"APOAPSIS":"540.865","TLE_LINE1":"1 53855U 22114AP  23040.84189564  .00033459  00000-0  21105-2 0  9995","ECCENTRICITY":"0.00016090","RA_OF_ASC_NODE":"298.9256","LAUNCH_DATE":"2022-09-19","TIME_SYSTEM":"UTC","TLE_LINE2":"2 53855  53.2154 298.9256 0001609  80.0579 280.0595 15.08837862 22779","MEAN_MOTION_DOT":"0.00033459","COUNTRY_CODE":"US","SEMIMAJOR_AXIS":"6917.887","MEAN_ELEMENT_THEORY":"SGP4","FILE":"3783050","PERIAPSIS":"538.639","CENTER_NAME":"EARTH","OBJECT_ID":"2022-114AP","MEAN_MOTION_DDOT":"0.0000000000000","REF_FRAME":"TEME","EPOCH":"2023-02-09T20:12:19.783296","ARG_OF_PERICENTER":"80.0579","REV_AT_EPOCH":"2277","NORAD_CAT_ID":"53855","EPHEMERIS_TYPE":"0","MEAN_ANOMALY":"280.0595","ELEMENT_SET_NO":"999","RCS_SIZE":"LARGE","BSTAR":"0.00211050000000"},{"OBJECT_ID":"2022-114AQ","MEAN_MOTION_DDOT":"0.0000000000000","REF_FRAME":"TEME","PERIAPSIS":"539.046","CENTER_NAME":"EARTH","COUNTRY_CODE":"US","SEMIMAJOR_AXIS":"6917.831","MEAN_ELEMENT_THEORY":"SGP4","FILE":"3782313","TIME_SYSTEM":"UTC","TLE_LINE2":"2 53856  53.2154 291.8549 0000939 122.4228 237.6855 15.08856201 23365","MEAN_MOTION_DOT":"0.00032119","RCS_SIZE":"LARGE","ELEMENT_SET_NO":"999","BSTAR":"0.00202610000000","REV_AT_EPOCH":"2336","EPHEMERIS_TYPE":"0","NORAD_CAT_ID":"53856","MEAN_ANOMALY":"237.6855","ARG_OF_PERICENTER":"122.4228","EPOCH":"2023-02-09T06:48:14.151168","CLASSIFICATION_TYPE":"U","OBJECT_NAME":"STARLINK-4795","INCLINATION":"53.2154","PERIOD":"95.437","SITE":"AFETR","GP_ID":"224913048","OBJECT_TYPE":"PAYLOAD","LAUNCH_DATE":"2022-09-19","RA_OF_ASC_NODE":"291.8549","ECCENTRICITY":"0.00009390","APOAPSIS":"540.345","TLE_LINE1":"1 53856U 22114AQ  23040.28349712  .00032119  00000-0  20261-2 0  9991","MEAN_MOTION":"15.08856201","DECAY_DATE":null},{"APOAPSIS":"540.664","TLE_LINE1":"1 53857U 22114AR  23040.10588007  .00046055  00000-0  28912-2 0  9990","MEAN_MOTION":"15.08862722","DECAY_DATE":null,"LAUNCH_DATE":"2022-09-19","RA_OF_ASC_NODE":"302.1450","ECCENTRICITY":"0.00014290","GP_ID":"224913298","OBJECT_TYPE":"PAYLOAD","CLASSIFICATION_TYPE":"U","OBJECT_NAME":"STARLINK-4809","PERIOD":"95.436","INCLINATION":"53.2156","SITE":"AFETR","ARG_OF_PERICENTER":"77.7701","EPOCH":"2023-02-09T02:32:28.038048","BSTAR":"0.00289120000000","RCS_SIZE":"LARGE","ELEMENT_SET_NO":"999","REV_AT_EPOCH":"2320","EPHEMERIS_TYPE":"0","NORAD_CAT_ID":"53857","MEAN_ANOMALY":"282.3451","COUNTRY_CODE":"US","SEMIMAJOR_AXIS":"6917.811","FILE":"3782313","MEAN_ELEMENT_THEORY":"SGP4","TLE_LINE2":"2 53857  53.2156 302.1450 0001429  77.7701 282.3451 15.08862722 23205","TIME_SYSTEM":"UTC","MEAN_MOTION_DOT":"0.00046055","OBJECT_ID":"2022-114AR","MEAN_MOTION_DDOT":"0.0000000000000","REF_FRAME":"TEME","PERIAPSIS":"538.687","CENTER_NAME":"EARTH"}];
